<?xml version="1.0" encoding="UTF-8"?>
<kml xmlns="http://www.opengis.net/kml/2.2"><Document>
<name>Körös vízitúra 2026.07.28-08.02. - Szanazug → Szarvasi Ifjúsági Tábor</name>
<description>78,0 km élő vízen 3 evezős nap alatt + holtági nap. A nyomvonal a valódi OpenStreetMap-medergeometria (ODbL).</description>
<Style id="s2"><LineStyle><color>ff1c86e2</color><width>5</width></LineStyle></Style>
<Style id="s3"><LineStyle><color>ff227ee6</color><width>5</width></LineStyle></Style>
<Style id="s4"><LineStyle><color>ff3239c0</color><width>5</width></LineStyle></Style>
<Folder><name>Napi szakaszok</name>
<Placemark><name>07.29 Szanazug - Köröstarcsa (30,2 km)</name><styleUrl>#s2</styleUrl><LineString><tessellate>1</tessellate><coordinates>21.26868,46.70064,0 21.26692,46.70136,0 21.26534,46.70227,0 21.24531,46.71342,0 21.23903,46.71672,0 21.22661,46.72323,0 21.15942,46.75959,0 21.15573,46.76175,0 21.15572,46.76175,0 21.15472,46.76229,0 21.15416,46.76259,0 21.15236,46.76356,0 21.15085,46.76450,0 21.14820,46.76742,0 21.14595,46.77135,0 21.14450,46.77661,0 21.13719,46.79725,0 21.13692,46.79803,0 21.13612,46.80060,0 21.13599,46.80100,0 21.13555,46.80155,0 21.13527,46.80177,0 21.13433,46.80207,0 21.13307,46.80214,0 21.13060,46.80212,0 21.12564,46.80308,0 21.12464,46.80372,0 21.12315,46.80489,0 21.12115,46.80714,0 21.12020,46.80923,0 21.12016,46.81135,0 21.12011,46.81176,0 21.11992,46.81213,0 21.11964,46.81246,0 21.11922,46.81276,0 21.11867,46.81298,0 21.11798,46.81315,0 21.11716,46.81324,0 21.11563,46.81319,0 21.11459,46.81323,0 21.11373,46.81335,0 21.11310,46.81355,0 21.11201,46.81437,0 21.11167,46.81543,0 21.11193,46.81618,0 21.11272,46.81665,0 21.11420,46.81747,0 21.11466,46.81808,0 21.11511,46.81899,0 21.11503,46.82030,0 21.11469,46.82158,0 21.11386,46.82342,0 21.11216,46.82507,0 21.10936,46.82686,0 21.10914,46.82734,0 21.10899,46.82782,0 21.10899,46.82825,0 21.10916,46.82870,0 21.10923,46.82909,0 21.10911,46.82966,0 21.10866,46.83062,0 21.10851,46.83112,0 21.10838,46.83249,0 21.10848,46.83369,0 21.10916,46.83529,0 21.10914,46.83578,0 21.10885,46.83649,0 21.10782,46.83769,0 21.10708,46.83889,0 21.10699,46.83944,0 21.10766,46.84189,0 21.10762,46.84257,0 21.10699,46.84292,0 21.10528,46.84358,0 21.10431,46.84396,0 21.10336,46.84433,0 21.10235,46.84470,0 21.10128,46.84544,0 21.10056,46.84582,0 21.09994,46.84596,0 21.09932,46.84603,0 21.09722,46.84609,0 21.09361,46.84674,0 21.09324,46.84686,0 21.09301,46.84697,0 21.09284,46.84710,0 21.09265,46.84733,0 21.09252,46.84761,0 21.09249,46.84787,0 21.09259,46.84808,0 21.09282,46.84853,0 21.09325,46.84902,0 21.09488,46.85031,0 21.09497,46.85070,0 21.09477,46.85110,0 21.09445,46.85139,0 21.09286,46.85194,0 21.09122,46.85256,0 21.08973,46.85296,0 21.08820,46.85302,0 21.08614,46.85288,0 21.08409,46.85291,0 21.08111,46.85321,0 21.07843,46.85378,0 21.07318,46.85626,0 21.07159,46.85780,0 21.07016,46.85930,0 21.06743,46.86063,0 21.06642,46.86116,0 21.06446,46.86310,0 21.06404,46.86413,0 21.06412,46.86563,0 21.06327,46.86681,0 21.06230,46.86780,0 21.05939,46.86927,0 21.05652,46.86978,0 21.05547,46.87010,0 21.05411,46.87092,0 21.05260,46.87229,0 21.05214,46.87353,0 21.05176,46.87493,0 21.05009,46.87713,0 21.04907,46.87774,0 21.04546,46.87841,0 21.04322,46.87878,0 21.04312,46.87880,0 21.03677,46.87895,0 21.03576,46.87926,0 21.03496,46.87976,0 21.03390,46.88146,0 21.03348,46.88244,0 21.03161,46.88437,0 21.03158,46.88451,0</coordinates></LineString></Placemark>
<Placemark><name>07.30 Köröstarcsa - Gyomaendrőd (21,3 km)</name><styleUrl>#s3</styleUrl><LineString><tessellate>1</tessellate><coordinates>21.03158,46.88451,0 21.03144,46.88529,0 21.03160,46.88583,0 21.03183,46.88640,0 21.03300,46.88748,0 21.03419,46.88876,0 21.03444,46.88918,0 21.03454,46.88965,0 21.03440,46.89023,0 21.03409,46.89059,0 21.03060,46.89334,0 21.03046,46.89345,0 21.02797,46.89575,0 21.02592,46.89627,0 21.02038,46.89726,0 21.01605,46.89827,0 21.01492,46.89853,0 21.01186,46.89986,0 21.00932,46.90145,0 21.00839,46.90221,0 21.00763,46.90356,0 21.00769,46.90401,0 21.00817,46.90449,0 21.00878,46.90476,0 21.00968,46.90498,0 21.01007,46.90582,0 21.01000,46.90666,0 21.00912,46.90746,0 21.00797,46.90792,0 21.00386,46.90840,0 21.00289,46.90889,0 21.00264,46.90975,0 21.00300,46.91183,0 21.00272,46.91239,0 21.00179,46.91300,0 21.00086,46.91346,0 20.99981,46.91365,0 20.99878,46.91373,0 20.99821,46.91373,0 20.99387,46.91367,0 20.99115,46.91391,0 20.98947,46.91432,0 20.98147,46.91830,0 20.97997,46.91925,0 20.97805,46.91994,0 20.97763,46.92007,0 20.97718,46.92012,0 20.97546,46.91989,0 20.97000,46.91895,0 20.96838,46.91895,0 20.96705,46.91906,0 20.96650,46.91919,0 20.96595,46.91941,0 20.96505,46.92002,0 20.96350,46.92147,0 20.95137,46.92795,0 20.95081,46.92822,0 20.95014,46.92842,0 20.92832,46.93302,0 20.92751,46.93316,0 20.92664,46.93318,0 20.92593,46.93313,0 20.91959,46.93262,0 20.91685,46.93255,0 20.91580,46.93229,0 20.91252,46.93015,0 20.90981,46.92900,0 20.90800,46.92859,0 20.90677,46.92854,0 20.90016,46.92872,0 20.89875,46.92868,0 20.89548,46.92740,0 20.89213,46.92676,0 20.88818,46.92675,0 20.88697,46.92712,0 20.88645,46.92768,0 20.88639,46.93007,0 20.88612,46.93053,0 20.88574,46.93099,0 20.88517,46.93115,0 20.88451,46.93106,0 20.88314,46.93028,0 20.88244,46.93007,0 20.88147,46.93009,0 20.88069,46.93038,0 20.87897,46.93201,0 20.87728,46.93283,0 20.87462,46.93339,0 20.87105,46.93362,0 20.86952,46.93327,0 20.86583,46.93192,0 20.86461,46.93168,0 20.86331,46.93177,0 20.86217,46.93191,0 20.86040,46.93254,0 20.85938,46.93310,0 20.85837,46.93407,0 20.85808,46.93451,0 20.85791,46.93565,0 20.85792,46.93671,0 20.85772,46.93748,0 20.85742,46.93822,0 20.85537,46.94029,0 20.85406,46.94127,0 20.85203,46.94213,0 20.85118,46.94249,0 20.84659,46.94434,0 20.84492,46.94522,0 20.84264,46.94636,0 20.84089,46.94762,0 20.83898,46.94937,0 20.83808,46.95018,0 20.83716,46.95072,0 20.83653,46.95092,0 20.83554,46.95100,0 20.83444,46.95085,0 20.83311,46.95047,0 20.83046,46.94925,0 20.82508,46.94780,0 20.82350,46.94701,0 20.82178,46.94574,0</coordinates></LineString></Placemark>
<Placemark><name>07.31 Gyomaendrőd - Szarvas, átemelés (26,5 km)</name><styleUrl>#s4</styleUrl><LineString><tessellate>1</tessellate><coordinates>20.82178,46.94574,0 20.81865,46.94344,0 20.81632,46.94240,0 20.81308,46.94135,0 20.81221,46.94118,0 20.81060,46.94103,0 20.80517,46.94181,0 20.80415,46.94190,0 20.80319,46.94184,0 20.80047,46.94126,0 20.79705,46.94020,0 20.79526,46.93983,0 20.79322,46.93946,0 20.77067,46.93711,0 20.76708,46.93639,0 20.76428,46.93515,0 20.76238,46.93360,0 20.76188,46.93303,0 20.76175,46.93220,0 20.76202,46.93102,0 20.76209,46.93031,0 20.76189,46.92976,0 20.76137,46.92947,0 20.76030,46.92910,0 20.75957,46.92901,0 20.75783,46.92902,0 20.75401,46.92947,0 20.74935,46.92976,0 20.74536,46.92915,0 20.74125,46.92827,0 20.74022,46.92810,0 20.73880,46.92814,0 20.73629,46.92911,0 20.73327,46.93043,0 20.73027,46.93155,0 20.72861,46.93196,0 20.72671,46.93198,0 20.72516,46.93174,0 20.72383,46.93138,0 20.72221,46.93046,0 20.72129,46.93030,0 20.72027,46.93043,0 20.71231,46.93199,0 20.70573,46.93311,0 20.67399,46.93862,0 20.66773,46.93969,0 20.66509,46.93999,0 20.66121,46.94052,0 20.65845,46.94029,0 20.65704,46.94042,0 20.65574,46.94079,0 20.65522,46.94127,0 20.65494,46.94187,0 20.65432,46.94400,0 20.65380,46.94463,0 20.65334,46.94496,0 20.65260,46.94509,0 20.65163,46.94503,0 20.65063,46.94466,0 20.64791,46.94291,0 20.64721,46.94250,0 20.64682,46.94231,0 20.64613,46.94209,0 20.64541,46.94189,0 20.63620,46.93997,0 20.63388,46.93946,0 20.63294,46.93931,0 20.63198,46.93920,0 20.63110,46.93920,0 20.62978,46.93921,0 20.62763,46.93942,0 20.62326,46.93954,0 20.61968,46.93943,0 20.61907,46.93938,0 20.61851,46.93928,0 20.61799,46.93915,0 20.61755,46.93893,0 20.61236,46.93473,0 20.60981,46.93304,0 20.60702,46.93179,0 20.60633,46.93115,0 20.60581,46.93018,0 20.60567,46.92966,0 20.60560,46.92887,0 20.60620,46.92812,0 20.60659,46.92727,0 20.60631,46.92610,0 20.60388,46.92257,0 20.59953,46.91884,0 20.59910,46.91857,0 20.59892,46.91846,0 20.59875,46.91836,0 20.59640,46.91684,0 20.59545,46.91632,0 20.58908,46.91274,0 20.58883,46.91262,0 20.58856,46.91257,0 20.58743,46.91230,0 20.58560,46.91208,0 20.58376,46.91198,0 20.56099,46.91320,0 20.56010,46.91330,0 20.55962,46.91345,0 20.55913,46.91365,0 20.55872,46.91387,0 20.55702,46.91545,0 20.55498,46.91668,0 20.55419,46.91688,0 20.55339,46.91694,0 20.55174,46.91663,0 20.54660,46.91487,0 20.54598,46.91424,0 20.54576,46.91352,0 20.54601,46.91238,0 20.54664,46.91056,0 20.54648,46.90781,0 20.54578,46.90619,0 20.54485,46.90485,0 20.54098,46.90245,0 20.54041,46.90204,0 20.53911,46.90097,0 20.53769,46.90017,0 20.53694,46.89986,0 20.53612,46.89958,0 20.53593,46.89953,0</coordinates></LineString></Placemark>
</Folder><Folder><name>Megállók és táborhelyek</name>
<Placemark><name>1. Szanazug kemping - START</name><description>TÁBORHELY 07.28. Kettős-Körös 37,3 fkm. WC, zuhany, büfé, áram, tűzrakó, homokos strand.</description><Point><coordinates>21.26868,46.70064,0</coordinates></Point></Placemark>
<Placemark><name>Békés-Dánfok - megálló</name><description>07.29, 10,3 km-nél. WC, zuhany, büfé, strand. Kb. K 27 fkm.</description><Point><coordinates>21.16265,46.75784,0</coordinates></Point></Placemark>
<Placemark><name>Békési közúti híd</name><description>K 25 fkm. Utána 2 km-rel kezdődnek a Samu-kanyarok.</description><Point><coordinates>21.14603,46.77121,0</coordinates></Point></Placemark>
<Placemark><name>Mezőberényi híd - büfé</name><description>07.29, 24,3 km-nél. Árnyékos büfé, Petőfi-emlékoszlop. K 13 fkm.</description><Point><coordinates>21.08639,46.85290,0</coordinates></Point></Placemark>
<Placemark><name>2. Köröstarcsai kishajókikötő</name><description>TÁBORHELY 07.29. K 7,0 fkm. WC, zuhany, büfé, ivóvíz, áram, tűzrakó.</description><Point><coordinates>21.03158,46.88451,0</coordinates></Point></Placemark>
<Placemark><name>Kettős + Sebes összefolyás</name><description>H 91,3 fkm. Stég, fürdőhely. Innen Hármas-Körös.</description><Point><coordinates>20.97718,46.92012,0</coordinates></Point></Placemark>
<Placemark><name>Félhalmi Horgásztanya - büfé</name><description>07.30. Árnyékos büfé, jégkrém, hivatalos kikötő. H ~90 fkm.</description><Point><coordinates>20.96219,46.92217,0</coordinates></Point></Placemark>
<Placemark><name>3. Gyomaendrőd - Csicsergő</name><description>TÁBORHELY 07.30. H 77,0 fkm bal part. Úszó stég, WC, zuhany, büfé, WiFi, parkoló.</description><Point><coordinates>20.82178,46.94574,0</coordinates></Point></Placemark>
<Placemark><name>Kisörvetői gátőrház - megálló</name><description>07.31, 15,8 km-nél. Stég, tölgyes, WC, zuhany, áram. H 61,2 fkm.</description><Point><coordinates>20.63530,46.93977,0</coordinates></Point></Placemark>
<Placemark><name>Halászlak - Harcsa büfé</name><description>07.31, 23,2 km-nél. Büfé, WC, 1 zuhany, vasúti megálló 100 m. H 53,8 fkm. TARTALÉK kiszálló.</description><Point><coordinates>20.56013,46.91330,0</coordinates></Point></Placemark>
<Placemark><name>ÁTEMELÉS - kiszállás az élő vízről</name><description>07.31, H 50,5 fkm bal part. Innen utánfutóval 3,5 km a Holt-Körösig. Lejáró egyeztetendő!</description><Point><coordinates>20.53593,46.89953,0</coordinates></Point></Placemark>
<Placemark><name>Békésszentandrási duzzasztó - NEM útvonal</name><description>H ~48 fkm. Ez duzzasztja a teljes felettes szakaszt, ezért nincs sodrás.</description><Point><coordinates>20.50475,46.89239,0</coordinates></Point></Placemark>
<Placemark><name>4. Szarvasi Ifjúsági Tábor - VÉGPONT</name><description>TÁBORHELY 07.31 + 08.01. Erzsébet-liget, Holt-Körös part. 3 stég, WC, zuhany, sátorozás. +36 20 480 1761</description><Point><coordinates>20.55800,46.87200,0</coordinates></Point></Placemark>
<Placemark><name>Szarvasi Arborétum (Pepi-kert)</name><description>08.01 holtági nap fordulópontja, kb. 8-10 km oda-vissza.</description><Point><coordinates>20.52200,46.87300,0</coordinates></Point></Placemark>
</Folder></Document></kml>